0 SL-16 DEB
1 22368U 92093BH  13281.83032652  .00000400  00000-0  11664-3 0   433
2 22368 071.2461 301.2498 0121608 336.6524 076.3983 14.46044621 92074
0 SL-16 DEB
1 22368U 92093BH  13283.83715072  .00000456  00000-0  13105-3 0   443
2 22368 071.2459 296.8704 0121673 333.3854 083.4214 14.46048269 92362
0 SL-16 DEB
1 22368U 92093BH  13286.20196340  .00000483  00000-0  13780-3 0   458
2 22368 071.2458 291.7096 0121787 329.5388 154.0639 14.46050715 92707
0 SL-16 DEB
1 22368U 92093BH  13288.42392712  .00000826  00000-0  22557-3 0   469
2 22368 071.2460 286.8604 0121916 325.9464 201.0699 14.46054123 93021
0 SL-16 DEB
1 22368U 92093BH  13291.17537247  .00000681  00000-0  18830-3 0   478
2 22368 071.2465 280.8555 0122024 321.4907 124.4786 14.46058583 93422
0 SL-16 DEB
1 22368U 92093BH  13293.18179637  .00000837  00000-0  22810-3 0   483
2 22368 071.2466 276.4768 0122102 318.2515 129.4898 14.46061229 93718
0 SL-16 DEB
1 22368U 92093BH  13295.40978542  .00000899  00000-0  24407-3 0   495
2 22368 071.2467 271.6147 0122163 314.6346 207.9666 14.46066020 94031
